[{"OBJECT_NAME":"IRIDIUM 124","OBJECT_ID":"2017-039H","EPOCH":"2026-03-06T05:38:25.585440","MEAN_MOTION":14.43271119,"ECCENTRICITY":0.00021118,"INCLINATION":86.4537,"RA_OF_ASC_NODE":333.4186,"ARG_OF_PERICENTER":84.2503,"MEAN_ANOMALY":275.8938,"EPHEMERIS_TYPE":0,"CLASSIFICATION_TYPE":"U","NORAD_CAT_ID":42810,"ELEMENT_SET_NO":999,"REV_AT_EPOCH":46026,"BSTAR":0.00015623714,"MEAN_MOTION_DOT":5.46e-6,"MEAN_MOTION_DDOT":0},{"OBJECT_NAME":"IRIDIUM 128","OBJECT_ID":"2017-039J","EPOCH":"2026-03-06T10:33:46.619424","MEAN_MOTION":14.3421778,"ECCENTRICITY":0.00020793,"INCLINATION":86.3914,"RA_OF_ASC_NODE":68.1049,"ARG_OF_PERICENTER":95.0355,"MEAN_ANOMALY":265.1078,"EPHEMERIS_TYPE":0,"CLASSIFICATION_TYPE":"U","NORAD_CAT_ID":42811,"ELEMENT_SET_NO":999,"REV_AT_EPOCH":45525,"BSTAR":2.112028e-6,"MEAN_MOTION_DOT":2.6e-7,"MEAN_MOTION_DDOT":0},{"OBJECT_NAME":"IRIDIUM 121","OBJECT_ID":"2017-039K","EPOCH":"2026-03-06T09:34:02.946144","MEAN_MOTION":14.34217666,"ECCENTRICITY":0.00022258,"INCLINATION":86.3968,"RA_OF_ASC_NODE":36.613,"ARG_OF_PERICENTER":89.6947,"MEAN_ANOMALY":270.4503,"EPHEMERIS_TYPE":0,"CLASSIFICATION_TYPE":"U","NORAD_CAT_ID":42812,"ELEMENT_SET_NO":999,"REV_AT_EPOCH":45509,"BSTAR":1.194758e-6,"MEAN_MOTION_DOT":2.3e-7,"MEAN_MOTION_DDOT":0},{"OBJECT_NAME":"IRIDIUM 133","OBJECT_ID":"2017-061A","EPOCH":"2026-03-06T09:38:58.673472","MEAN_MOTION":14.34217632,"ECCENTRICITY":0.00021463,"INCLINATION":86.3913,"RA_OF_ASC_NODE":68.2361,"ARG_OF_PERICENTER":90.2705,"MEAN_ANOMALY":269.8736,"EPHEMERIS_TYPE":0,"CLASSIFICATION_TYPE":"U","NORAD_CAT_ID":42955,"ELEMENT_SET_NO":999,"REV_AT_EPOCH":44004,"BSTAR":3.911e-7,"MEAN_MOTION_DOT":2.1e-7,"MEAN_MOTION_DDOT":0},{"OBJECT_NAME":"IRIDIUM 100","OBJECT_ID":"2017-061B","EPOCH":"2026-03-06T12:50:46.636800","MEAN_MOTION":14.34217534,"ECCENTRICITY":0.00021347,"INCLINATION":86.3911,"RA_OF_ASC_NODE":68.1012,"ARG_OF_PERICENTER":90.4426,"MEAN_ANOMALY":269.7014,"EPHEMERIS_TYPE":0,"CLASSIFICATION_TYPE":"U","NORAD_CAT_ID":42956,"ELEMENT_SET_NO":999,"REV_AT_EPOCH":44006,"BSTAR":-3.567852e-6,"MEAN_MOTION_DOT":1.0e-7,"MEAN_MOTION_DDOT":0},{"OBJECT_NAME":"IRIDIUM 122","OBJECT_ID":"2017-061C","EPOCH":"2026-03-06T08:44:10.420800","MEAN_MOTION":14.34217593,"ECCENTRICITY":0.00021292,"INCLINATION":86.3911,"RA_OF_ASC_NODE":68.1729,"ARG_OF_PERICENTER":88.8703,"MEAN_ANOMALY":271.2737,"EPHEMERIS_TYPE":0,"CLASSIFICATION_TYPE":"U","NORAD_CAT_ID":42957,"ELEMENT_SET_NO":999,"REV_AT_EPOCH":44004,"BSTAR":-6.121945e-6,"MEAN_MOTION_DOT":3.0e-8,"MEAN_MOTION_DDOT":0},{"OBJECT_NAME":"IRIDIUM 129","OBJECT_ID":"2017-061D","EPOCH":"2026-03-06T09:20:42.670464","MEAN_MOTION":14.34217561,"ECCENTRICITY":0.00025068,"INCLINATION":86.3912,"RA_OF_ASC_NODE":68.2283,"ARG_OF_PERICENTER":85.7204,"MEAN_ANOMALY":274.4278,"EPHEMERIS_TYPE":0,"CLASSIFICATION_TYPE":"U","NORAD_CAT_ID":42958,"ELEMENT_SET_NO":999,"REV_AT_EPOCH":44006,"BSTAR":-1.7290682e-5,"MEAN_MOTION_DOT":-2.9e-7,"MEAN_MOTION_DDOT":0},{"OBJECT_NAME":"IRIDIUM 119","OBJECT_ID":"2017-061E","EPOCH":"2026-03-06T08:35:02.643936","MEAN_MOTION":14.34217636,"ECCENTRICITY":0.00021134,"INCLINATION":86.3912,"RA_OF_ASC_NODE":68.2371,"ARG_OF_PERICENTER":85.5326,"MEAN_ANOMALY":274.6111,"EPHEMERIS_TYPE":0,"CLASSIFICATION_TYPE":"U","NORAD_CAT_ID":42959,"ELEMENT_SET_NO":999,"REV_AT_EPOCH":44007,"BSTAR":-2.677051e-6,"MEAN_MOTION_DOT":1.2e-7,"MEAN_MOTION_DDOT":0},{"OBJECT_NAME":"IRIDIUM 107","OBJECT_ID":"2017-061F","EPOCH":"2026-03-06T10:42:54.570816","MEAN_MOTION":14.34217593,"ECCENTRICITY":0.00017728,"INCLINATION":86.3914,"RA_OF_ASC_NODE":68.2207,"ARG_OF_PERICENTER":86.1711,"MEAN_ANOMALY":273.9687,"EPHEMERIS_TYPE":0,"CLASSIFICATION_TYPE":"U","NORAD_CAT_ID":42960,"ELEMENT_SET_NO":999,"REV_AT_EPOCH":44009,"BSTAR":-5.241632e-6,"MEAN_MOTION_DOT":5.0e-8,"MEAN_MOTION_DDOT":0},{"OBJECT_NAME":"IRIDIUM 132","OBJECT_ID":"2017-061G","EPOCH":"2026-03-06T09:11:34.555776","MEAN_MOTION":14.34217743,"ECCENTRICITY":0.0002108,"INCLINATION":86.3913,"RA_OF_ASC_NODE":68.2271,"ARG_OF_PERICENTER":90.1069,"MEAN_ANOMALY":270.0368,"EPHEMERIS_TYPE":0,"CLASSIFICATION_TYPE":"U","NORAD_CAT_ID":42961,"ELEMENT_SET_NO":999,"REV_AT_EPOCH":44008,"BSTAR":3.80415e-7,"MEAN_MOTION_DOT":2.1e-7,"MEAN_MOTION_DDOT":0},{"OBJECT_NAME":"IRIDIUM 136","OBJECT_ID":"2017-061H","EPOCH":"2026-03-06T09:57:14.616000","MEAN_MOTION":14.34217588,"ECCENTRICITY":0.00020308,"INCLINATION":86.391,"RA_OF_ASC_NODE":68.2201,"ARG_OF_PERICENTER":86.6653,"MEAN_ANOMALY":273.4775,"EPHEMERIS_TYPE":0,"CLASSIFICATION_TYPE":"U","NORAD_CAT_ID":42962,"ELEMENT_SET_NO":999,"REV_AT_EPOCH":44010,"BSTAR":-6.024511e-6,"MEAN_MOTION_DOT":3.0e-8,"MEAN_MOTION_DDOT":0},{"OBJECT_NAME":"IRIDIUM 139","OBJECT_ID":"2017-061J","EPOCH":"2026-03-06T01:44:02.655744","MEAN_MOTION":14.34217549,"ECCENTRICITY":0.00019818,"INCLINATION":86.3911,"RA_OF_ASC_NODE":68.4238,"ARG_OF_PERICENTER":91.0034,"MEAN_ANOMALY":269.1388,"EPHEMERIS_TYPE":0,"CLASSIFICATION_TYPE":"U","NORAD_CAT_ID":42963,"ELEMENT_SET_NO":999,"REV_AT_EPOCH":44006,"BSTAR":-4.571615e-6,"MEAN_MOTION_DOT":7.0e-8,"MEAN_MOTION_DDOT":0},{"OBJECT_NAME":"IRIDIUM 125","OBJECT_ID":"2017-061K","EPOCH":"2026-03-06T11:28:34.556736","MEAN_MOTION":14.34217511,"ECCENTRICITY":0.00018358,"INCLINATION":86.3913,"RA_OF_ASC_NODE":68.3132,"ARG_OF_PERICENTER":74.3526,"MEAN_ANOMALY":285.7873,"EPHEMERIS_TYPE":0,"CLASSIFICATION_TYPE":"U","NORAD_CAT_ID":42964,"ELEMENT_SET_NO":999,"REV_AT_EPOCH":44013,"BSTAR":-8.934147e-6,"MEAN_MOTION_DOT":-5.0e-8,"MEAN_MOTION_DDOT":0},{"OBJECT_NAME":"IRIDIUM 135","OBJECT_ID":"2017-083A","EPOCH":"2026-03-06T19:13:39.373824","MEAN_MOTION":14.3422026,"ECCENTRICITY":0.0002199,"INCLINATION":86.4021,"RA_OF_ASC_NODE":4.7994,"ARG_OF_PERICENTER":85.9886,"MEAN_ANOMALY":274.1561,"EPHEMERIS_TYPE":0,"CLASSIFICATION_TYPE":"U","NORAD_CAT_ID":43070,"ELEMENT_SET_NO":999,"REV_AT_EPOCH":42947,"BSTAR":0.00013924,"MEAN_MOTION_DOT":4.1e-6,"MEAN_MOTION_DDOT":0},{"OBJECT_NAME":"IRIDIUM 138","OBJECT_ID":"2017-083B","EPOCH":"2026-03-06T19:50:11.231232","MEAN_MOTION":14.3421727,"ECCENTRICITY":0.0002237,"INCLINATION":86.4027,"RA_OF_ASC_NODE":4.4685,"ARG_OF_PERICENTER":75.8245,"MEAN_ANOMALY":284.32,"EPHEMERIS_TYPE":0,"CLASSIFICATION_TYPE":"U","NORAD_CAT_ID":43071,"ELEMENT_SET_NO":999,"REV_AT_EPOCH":42946,"BSTAR":-1.3948e-5,"MEAN_MOTION_DOT":-1.9e-7,"MEAN_MOTION_DDOT":0},{"OBJECT_NAME":"IRIDIUM 116","OBJECT_ID":"2017-083C","EPOCH":"2026-03-06T09:01:43.187520","MEAN_MOTION":14.34217675,"ECCENTRICITY":0.00020894,"INCLINATION":86.4019,"RA_OF_ASC_NODE":4.9639,"ARG_OF_PERICENTER":94.0424,"MEAN_ANOMALY":266.1011,"EPHEMERIS_TYPE":0,"CLASSIFICATION_TYPE":"U","NORAD_CAT_ID":43072,"ELEMENT_SET_NO":999,"REV_AT_EPOCH":42943,"BSTAR":2.591501e-6,"MEAN_MOTION_DOT":2.7e-7,"MEAN_MOTION_DDOT":0},{"OBJECT_NAME":"IRIDIUM 130","OBJECT_ID":"2017-083D","EPOCH":"2026-03-06T13:17:27.116448","MEAN_MOTION":14.34218029,"ECCENTRICITY":0.00019414,"INCLINATION":86.4029,"RA_OF_ASC_NODE":5.155,"ARG_OF_PERICENTER":91.59,"MEAN_ANOMALY":268.5518,"EPHEMERIS_TYPE":0,"CLASSIFICATION_TYPE":"U","NORAD_CAT_ID":43073,"ELEMENT_SET_NO":999,"REV_AT_EPOCH":42940,"BSTAR":5.0613573e-5,"MEAN_MOTION_DOT":1.62e-6,"MEAN_MOTION_DDOT":0}]
