IRIDIUM 124             
1 42810U 17039H   26065.23501835  .00000546  00000+0  15624-3 0  9996
2 42810  86.4537 333.4186 0002111  84.2503 275.8938 14.43271119460268
IRIDIUM 128             
1 42811U 17039J   26065.44012291  .00000026  00000+0  21120-5 0  9996
2 42811  86.3914  68.1049 0002079  95.0355 265.1078 14.34217780455259
IRIDIUM 121             
1 42812U 17039K   26065.39864521  .00000023  00000+0  11948-5 0  9996
2 42812  86.3968  36.6130 0002225  89.6947 270.4503 14.34217666455096
IRIDIUM 133             
1 42955U 17061A   26065.40206798  .00000021  00000+0  39110-6 0  9997
2 42955  86.3913  68.2361 0002146  90.2705 269.8736 14.34217632440045
IRIDIUM 100             
1 42956U 17061B   26065.53526200  .00000010  00000+0 -35679-5 0  9999
2 42956  86.3911  68.1012 0002134  90.4426 269.7014 14.34217534440066
IRIDIUM 122             
1 42957U 17061C   26065.36400950  .00000003  00000+0 -61219-5 0  9995
2 42957  86.3911  68.1729 0002129  88.8703 271.2737 14.34217593440048
IRIDIUM 129             
1 42958U 17061D   26065.38938276 -.00000029  00000+0 -17291-4 0  9994
2 42958  86.3912  68.2283 0002506  85.7204 274.4278 14.34217561440069
IRIDIUM 119             
1 42959U 17061E   26065.35766949  .00000012  00000+0 -26771-5 0  9993
2 42959  86.3912  68.2371 0002113  85.5326 274.6111 14.34217636440077
IRIDIUM 107             
1 42960U 17061F   26065.44646494  .00000005  00000+0 -52416-5 0  9994
2 42960  86.3914  68.2207 0001772  86.1711 273.9687 14.34217593440098
IRIDIUM 132             
1 42961U 17061G   26065.38303884  .00000021  00000+0  38041-6 0  9997
2 42961  86.3913  68.2271 0002108  90.1069 270.0368 14.34217743440084
IRIDIUM 136             
1 42962U 17061H   26065.41475250  .00000003  00000+0 -60245-5 0  9990
2 42962  86.3910  68.2201 0002030  86.6653 273.4775 14.34217588440107
IRIDIUM 139             
1 42963U 17061J   26065.07225296  .00000007  00000+0 -45716-5 0  9996
2 42963  86.3911  68.4238 0001981  91.0034 269.1388 14.34217549440062
IRIDIUM 125             
1 42964U 17061K   26065.47817774 -.00000005  00000+0 -89341-5 0  9990
2 42964  86.3913  68.3132 0001835  74.3526 285.7873 14.34217511440135
IRIDIUM 135             
1 43070U 17083A   26065.80115016  .00000410  00000+0  13924-3 0  9990
2 43070  86.4021   4.7994 0002199  85.9886 274.1561 14.34220260429471
IRIDIUM 138             
1 43071U 17083B   26065.82651888 -.00000019  00000+0 -13948-4 0  9999
2 43071  86.4027   4.4685 0002237  75.8245 284.3200 14.34217270429461
IRIDIUM 116             
1 43072U 17083C   26065.37619430  .00000027  00000+0  25915-5 0  9992
2 43072  86.4019   4.9639 0002089  94.0424 266.1011 14.34217675429438
IRIDIUM 130             
1 43073U 17083D   26065.55378607  .00000162  00000+0  50614-4 0  9994
2 43073  86.4029   5.1550 0001941  91.5900 268.5518 14.34218029429401
